[{"OBJECT_NAME":"STARLINK-6033","OBJECT_ID":"2023-058F","EPOCH":"2026-03-09T22:34:45.661728","MEAN_MOTION":15.0195756,"ECCENTRICITY":0.00025539,"INCLINATION":97.604,"RA_OF_ASC_NODE":70.3892,"ARG_OF_PERICENTER":78.216,"MEAN_ANOMALY":281.9351,"EPHEMERIS_TYPE":0,"CLASSIFICATION_TYPE":"U","NORAD_CAT_ID":56322,"ELEMENT_SET_NO":999,"REV_AT_EPOCH":15781,"BSTAR":0.0054094517,"MEAN_MOTION_DOT":0.00071427,"MEAN_MOTION_DDOT":0},{"OBJECT_NAME":"COSMOS 397","OBJECT_ID":"1971-015A","EPOCH":"2026-03-09T21:06:55.710144","MEAN_MOTION":12.74935942,"ECCENTRICITY":0.10338804,"INCLINATION":65.7267,"RA_OF_ASC_NODE":325.6378,"ARG_OF_PERICENTER":275.7656,"MEAN_ANOMALY":72.6585,"EPHEMERIS_TYPE":0,"CLASSIFICATION_TYPE":"U","NORAD_CAT_ID":4964,"ELEMENT_SET_NO":999,"REV_AT_EPOCH":65559,"BSTAR":4.9717727e-5,"MEAN_MOTION_DOT":2.9e-7,"MEAN_MOTION_DDOT":0}]
